OBJECT_NAME,OBJECT_ID,EPOCH,MEAN_MOTION,ECCENTRICITY,INCLINATION,RA_OF_ASC_NODE,ARG_OF_PERICENTER,MEAN_ANOMALY,EPHEMERIS_TYPE,CLASSIFICATION_TYPE,NORAD_CAT_ID,ELEMENT_SET_NO,REV_AT_EPOCH,BSTAR,MEAN_MOTION_DOT,MEAN_MOTION_DDOT
STARLINK-35008,2025-192E,2026-06-28T22:01:15.975264,15.30215062,.00011757,53.1600,75.7141,87.5183,272.5952,0,U,65408,999,4641,.90697078E-3,.26611E-3,0
STARLINK-35022,2025-192F,2026-06-28T23:23:59.566272,15.31709924,.00006217,53.1599,74.6542,92.4428,267.6644,0,U,65409,999,4643,.71222192E-3,.21808E-3,0
STARLINK-35024,2025-192G,2026-06-28T23:30:42.952320,15.31716895,.00014499,53.1603,74.6841,89.8973,270.2195,0,U,65410,999,4643,.93881707E-3,.28896E-3,0
STARLINK-34983,2025-192H,2026-06-28T23:09:35.310528,15.31725065,.00013809,53.1616,74.5907,87.9333,272.1827,0,U,65411,999,4643,.99076922E-3,.3053E-3,0
STARLINK-34992,2025-192J,2026-06-28T23:16:18.384672,15.31719439,.00014335,53.1594,74.6192,102.7864,257.3297,0,U,65412,999,4641,.69207783E-3,.21185E-3,0
STARLINK-35003,2025-192K,2026-06-29T12:50:17.487168,15.30195007,.0001233,53.1579,73.1633,89.0684,271.0458,0,U,65413,999,4650,.26945E-3,.7628E-4,0
STARLINK-34238,2025-192M,2026-06-28T22:36:13.492512,15.30177443,.00010048,53.1578,75.8597,77.5399,282.5714,0,U,65415,999,4641,.7246794E-3,.2115E-3,0
STARLINK-34855,2025-192N,2026-06-28T22:36:44.616384,15.31743183,.00012183,53.1598,75.8656,99.9401,260.1738,0,U,65416,999,4641,.89175533E-3,.27446E-3,0
STARLINK-34255,2025-192P,2026-06-28T22:27:05.457312,15.30196539,.0000817,53.1590,75.8206,78.9906,281.1187,0,U,65417,999,4641,.10281824E-2,.30213E-3,0
STARLINK-34997,2025-192Q,2026-06-28T23:36:50.186016,15.30208138,.00008607,53.1607,75.4167,73.4029,286.7066,0,U,65418,999,4642,.64940577E-3,.18928E-3,0
STARLINK-35085,2025-192R,2026-06-28T22:35:58.858080,15.31705793,.00011225,53.1582,74.4547,113.9222,246.1897,0,U,65419,999,4643,.6078253E-3,.18547E-3,0
STARLINK-35138,2025-192S,2026-06-28T23:37:26.275296,15.31723856,.00009988,53.1603,74.7218,73.4039,286.7072,0,U,65420,999,4643,.68470798E-3,.20958E-3,0
STARLINK-35146,2025-192T,2026-06-28T22:10:11.877312,15.31710238,.0001018,53.1587,75.0433,77.3046,282.8069,0,U,65421,999,4641,.79947958E-3,.24533E-3,0
STARLINK-35074,2025-192U,2026-06-28T23:41:23.687808,15.30208133,.0001056,53.1602,75.4305,70.8225,289.2890,0,U,65422,999,4642,.85187446E-3,.24962E-3,0
STARLINK-34837,2025-192V,2026-06-28T22:23:09.171456,15.31703035,.00011922,53.1590,75.1018,92.4234,267.6904,0,U,65423,999,4642,.41511561E-3,.12539E-3,0
STARLINK-34670,2025-192W,2026-06-28T23:30:13.594464,15.31725654,.00009051,53.1602,74.6775,92.1870,267.9235,0,U,65424,999,4643,.46159578E-3,.13997E-3,0
STARLINK-35095,2025-192X,2026-06-28T22:57:14.878944,15.31695656,.00013269,53.1588,75.2437,102.6665,257.4485,0,U,65425,999,4642,.38773325E-3,.11684E-3,0
STARLINK-34883,2025-192Y,2026-06-28T22:43:18.995232,15.31714918,.00010887,53.1593,75.1831,103.7879,256.3244,0,U,65426,999,4641,.62600834E-3,.19119E-3,0
STARLINK-34916,2025-192Z,2026-06-28T22:50:02.249952,15.31716136,.00013262,53.1598,75.2116,100.5638,259.5513,0,U,65427,999,4642,.65154481E-3,.19917E-3,0
STARLINK-35004,2025-192AA,2026-06-28T22:31:39.257184,15.30202740,.00012151,53.1584,75.8382,90.5184,269.5956,0,U,65428,999,4641,.64387178E-3,.1876E-3,0
STARLINK-35014,2025-192AB,2026-06-28T22:39:15.131232,15.30188723,.00011539,53.1585,75.8717,127.0539,233.0568,0,U,65429,999,4641,.90985033E-3,.26675E-3,0
STARLINK-35025,2025-192AC,2026-06-28T22:38:19.398048,15.34400109,.00009818,53.1585,74.4567,87.2010,272.9105,0,U,65430,999,4643,.59506496E-3,.19782E-3,0
STARLINK-35034,2025-192AD,2026-06-28T22:24:03.170592,15.30199838,.00010871,53.1596,75.8058,101.7774,258.3349,0,U,65431,999,4641,.70580465E-3,.20603E-3,0
STARLINK-35142,2025-194A,2026-06-29T12:54:31.968000,15.05663177,.0002359,97.2970,33.1201,100.0936,260.0558,0,U,65434,999,4647,.27728E-3,.3948E-4,0
STARLINK-34978,2025-194B,2026-06-29T13:22:27.691680,15.05659096,.0001985,97.2974,33.2625,80.3867,279.7585,0,U,65435,999,4648,.22583E-3,.3204E-4,0
STARLINK-35043,2025-194C,2026-06-29T13:05:37.909824,15.04842556,.0002164,97.4398,34.2488,79.6542,280.4928,0,U,65436,999,4650,.18586E-3,.2567E-4,0
STARLINK-35080,2025-194D,2026-06-29T13:30:26.128224,15.05654557,.0001641,97.2992,33.2543,98.9826,261.1587,0,U,65437,999,4648,.62085E-4,.84E-5,0
STARLINK-35068,2025-194E,2026-06-29T13:02:30.594624,15.05657898,.000189,97.2990,33.1278,88.0365,272.1079,0,U,65438,999,4647,.22745E-3,.3227E-4,0
STARLINK-35045,2025-194F,2026-06-29T12:06:41.681376,15.05666212,.0002459,97.2995,33.1794,92.3199,267.8310,0,U,65439,999,4647,.14809E-3,.2082E-4,0
STARLINK-35050,2025-194G,2026-06-29T13:14:28.392000,15.05653201,.0001324,97.3012,33.2724,64.9280,295.2085,0,U,65440,999,4648,-.35615E-3,-.5192E-4,0
