[
  {
    "name": "STARLINK-35008",
    "noradId": "65408",
    "line1": "1 65408U 25192E   26179.91754601  .00026611  00000+0  90697-3 0  9999",
    "line2": "2 65408  53.1600  75.7141 0001175  87.5183 272.5952 15.30215062 46413"
  },
  {
    "name": "STARLINK-35022",
    "noradId": "65409",
    "line1": "1 65409U 25192F   26179.97499498  .00021808  00000+0  71222-3 0  9992",
    "line2": "2 65409  53.1599  74.6542 0000621  92.4428 267.6644 15.31709924 46437"
  },
  {
    "name": "STARLINK-35024",
    "noradId": "65410",
    "line1": "1 65410U 25192G   26179.97966380  .00028896  00000+0  93882-3 0  9993",
    "line2": "2 65410  53.1603  74.6841 0001449  89.8973 270.2195 15.31716895 46437"
  },
  {
    "name": "STARLINK-34983",
    "noradId": "65411",
    "line1": "1 65411U 25192H   26179.96499202  .00030530  00000+0  99077-3 0  9997",
    "line2": "2 65411  53.1616  74.5907 0001380  87.9333 272.1827 15.31725065 46439"
  },
  {
    "name": "STARLINK-34992",
    "noradId": "65412",
    "line1": "1 65412U 25192J   26179.96965723  .00021185  00000+0  69208-3 0  9993",
    "line2": "2 65412  53.1594  74.6192 0001433 102.7864 257.3297 15.31719439 46418"
  },
  {
    "name": "STARLINK-35003",
    "noradId": "65413",
    "line1": "1 65413U 25192K   26180.53492462  .00007628  00000+0  26945-3 0  9991",
    "line2": "2 65413  53.1579  73.1633 0001233  89.0684 271.0458 15.30195007 46501"
  },
  {
    "name": "STARLINK-34238",
    "noradId": "65415",
    "line1": "1 65415U 25192M   26179.94182283  .00021150  00000+0  72468-3 0  9990",
    "line2": "2 65415  53.1578  75.8597 0001004  77.5399 282.5714 15.30177443 46417"
  },
  {
    "name": "STARLINK-34855",
    "noradId": "65416",
    "line1": "1 65416U 25192N   26179.94218306  .00027446  00000+0  89176-3 0  9995",
    "line2": "2 65416  53.1598  75.8656 0001218  99.9401 260.1738 15.31743183 46414"
  },
  {
    "name": "STARLINK-34255",
    "noradId": "65417",
    "line1": "1 65417U 25192P   26179.93547983  .00030213  00000+0  10282-2 0  9998",
    "line2": "2 65417  53.1590  75.8206 0000817  78.9906 281.1187 15.30196539 46416"
  },
  {
    "name": "STARLINK-34997",
    "noradId": "65418",
    "line1": "1 65418U 25192Q   26179.98391419  .00018928  00000+0  64941-3 0  9996",
    "line2": "2 65418  53.1607  75.4167 0000860  73.4029 286.7066 15.30208138 46429"
  },
  {
    "name": "STARLINK-35085",
    "noradId": "65419",
    "line1": "1 65419U 25192R   26179.94165345  .00018547  00000+0  60783-3 0  9997",
    "line2": "2 65419  53.1582  74.4547 0001122 113.9222 246.1897 15.31705793 46433"
  },
  {
    "name": "STARLINK-35138",
    "noradId": "65420",
    "line1": "1 65420U 25192S   26179.98433189  .00020958  00000+0  68471-3 0  9998",
    "line2": "2 65420  53.1603  74.7218 0000998  73.4039 286.7072 15.31723856 46438"
  },
  {
    "name": "STARLINK-35146",
    "noradId": "65421",
    "line1": "1 65421U 25192T   26179.92374858  .00024533  00000+0  79948-3 0  9994",
    "line2": "2 65421  53.1587  75.0433 0001018  77.3046 282.8069 15.31710238 46419"
  },
  {
    "name": "STARLINK-35074",
    "noradId": "65422",
    "line1": "1 65422U 25192U   26179.98707972  .00024962  00000+0  85187-3 0  9996",
    "line2": "2 65422  53.1602  75.4305 0001056  70.8225 289.2890 15.30208133 46428"
  },
  {
    "name": "STARLINK-34837",
    "noradId": "65423",
    "line1": "1 65423U 25192V   26179.93274504  .00012539  00000+0  41512-3 0  9993",
    "line2": "2 65423  53.1590  75.1018 0001192  92.4234 267.6904 15.31703035 46422"
  },
  {
    "name": "STARLINK-34670",
    "noradId": "65424",
    "line1": "1 65424U 25192W   26179.97932401  .00013997  00000+0  46160-3 0  9998",
    "line2": "2 65424  53.1602  74.6775 0000905  92.1870 267.9235 15.31725654 46437"
  },
  {
    "name": "STARLINK-35095",
    "noradId": "65425",
    "line1": "1 65425U 25192X   26179.95642221  .00011684  00000+0  38773-3 0  9997",
    "line2": "2 65425  53.1588  75.2437 0001326 102.6665 257.4485 15.31695656 46428"
  },
  {
    "name": "STARLINK-34883",
    "noradId": "65426",
    "line1": "1 65426U 25192Y   26179.94674763  .00019119  00000+0  62601-3 0  9991",
    "line2": "2 65426  53.1593  75.1831 0001088 103.7879 256.3244 15.31714918 46419"
  },
  {
    "name": "STARLINK-34916",
    "noradId": "65427",
    "line1": "1 65427U 25192Z   26179.95141493  .00019917  00000+0  65154-3 0  9994",
    "line2": "2 65427  53.1598  75.2116 0001326 100.5638 259.5513 15.31716136 46424"
  },
  {
    "name": "STARLINK-35004",
    "noradId": "65428",
    "line1": "1 65428U 25192AA  26179.93864881  .00018760  00000+0  64387-3 0  9998",
    "line2": "2 65428  53.1584  75.8382 0001215  90.5184 269.5956 15.30202740 46413"
  },
  {
    "name": "STARLINK-35014",
    "noradId": "65429",
    "line1": "1 65429U 25192AB  26179.94392513  .00026675  00000+0  90985-3 0  9995",
    "line2": "2 65429  53.1585  75.8717 0001153 127.0539 233.0568 15.30188723 46417"
  },
  {
    "name": "STARLINK-35025",
    "noradId": "65430",
    "line1": "1 65430U 25192AC  26179.94328007  .00019782  00000+0  59506-3 0  9999",
    "line2": "2 65430  53.1585  74.4567 0000981  87.2010 272.9105 15.34400109 46436"
  },
  {
    "name": "STARLINK-35034",
    "noradId": "65431",
    "line1": "1 65431U 25192AD  26179.93337003  .00020603  00000+0  70580-3 0  9994",
    "line2": "2 65431  53.1596  75.8058 0001087 101.7774 258.3349 15.30199838 46412"
  },
  {
    "name": "STARLINK-35142",
    "noradId": "65434",
    "line1": "1 65434U 25194A   26180.53787000  .00003948  00000+0  27728-3 0  9992",
    "line2": "2 65434  97.2970  33.1201 0002359 100.0936 260.0558 15.05663177 46474"
  },
  {
    "name": "STARLINK-34978",
    "noradId": "65435",
    "line1": "1 65435U 25194B   26180.55726495  .00003204  00000+0  22583-3 0  9995",
    "line2": "2 65435  97.2974  33.2625 0001985  80.3867 279.7585 15.05659096 46480"
  },
  {
    "name": "STARLINK-35043",
    "noradId": "65436",
    "line1": "1 65436U 25194C   26180.54557766  .00002567  00000+0  18586-3 0  9997",
    "line2": "2 65436  97.4398  34.2488 0002164  79.6542 280.4928 15.04842556 46509"
  },
  {
    "name": "STARLINK-35080",
    "noradId": "65437",
    "line1": "1 65437U 25194D   26180.56280241  .00000840  00000+0  62085-4 0  9997",
    "line2": "2 65437  97.2992  33.2543 0001641  98.9826 261.1587 15.05654557 46484"
  },
  {
    "name": "STARLINK-35068",
    "noradId": "65438",
    "line1": "1 65438U 25194E   26180.54340966  .00003227  00000+0  22745-3 0  9997",
    "line2": "2 65438  97.2990  33.1278 0001890  88.0365 272.1079 15.05657898 46479"
  },
  {
    "name": "STARLINK-35045",
    "noradId": "65439",
    "line1": "1 65439U 25194F   26180.50464909  .00002082  00000+0  14809-3 0  9998",
    "line2": "2 65439  97.2995  33.1794 0002459  92.3199 267.8310 15.05666212 46472"
  },
  {
    "name": "STARLINK-35050",
    "noradId": "65440",
    "line1": "1 65440U 25194G   26180.55171750 -.00005192  00000+0 -35615-3 0  9999",
    "line2": "2 65440  97.3012  33.2724 0001324  64.9280 295.2085 15.05653201 46484"
  }
]